     2.11           G: GLONASS NAV DATA                     RINEX VERSION / TYPE
LEICA GEO OFFICE 8.4                    6-10-20 09:54       PGM / RUN BY / DATE
                                                            END OF HEADER
 1 20  9 26  5 45  2.0 6.811413913965D-05 0.000000000000D+00-4.877700000000D+05
    1.441990917969D+04-2.235031127930D-01 1.862645149231D-09 0.000000000000D+00
    2.067948388672D+04-4.963912963867D-01 1.862645149231D-09 1.000000000000D+00
    3.838044433594D+03 3.511380195618D+00 9.313225746155D-10 0.000000000000D+00
 1 20  9 26  6 15  2.0 6.811413913965D-05 0.000000000000D+00-4.860000000000D+05
    1.342380957031D+04-9.009552001953D-01 2.793967723846D-09 0.000000000000D+00
    1.927457519531D+04-1.026975631714D+00 1.862645149231D-09 1.000000000000D+00
    9.928264648438D+03 3.211545944214D+00 0.000000000000D+00 0.000000000000D+00
 1 20  9 26  6 45  2.0 6.811507046223D-05 0.000000000000D+00-4.842000000000D+05
    1.114463427734D+04-1.631019592285D+00 2.793967723846D-09 0.000000000000D+00
    1.713216650391D+04-1.309363365173D+00 9.313225746155D-10 1.000000000000D+00
    1.525010498047D+04 2.663186073303D+00 0.000000000000D+00 0.000000000000D+00
 1 20  9 26  7 15  2.0 6.811600178480D-05 0.000000000000D+00-4.824000000000D+05
    7.587893066406D+03-2.301674842834D+00 2.793967723846D-09 0.000000000000D+00
    1.472047753906D+04-1.327262878418D+00 0.000000000000D+00 1.000000000000D+00
    1.939181396484D+04 1.908829689026D+00-9.313225746155D-10 0.000000000000D+00
 1 20  9 26  7 45  2.0 6.811693310738D-05 0.000000000000D+00-4.806000000000D+05
    2.958745117188D+03-2.806209564209D+00 2.793967723846D-09 0.000000000000D+00
    1.249630957031D+04-1.109356880188D+00 0.000000000000D+00 1.000000000000D+00
    2.203314892578D+04 1.006953239441D+00-9.313225746155D-10 0.000000000000D+00
 1 20  9 26  8 15  2.0 6.812065839767D-05 0.000000000000D+00-4.788000000000D+05
   -2.363763671875D+03-3.060835838318D+00 1.862645149231D-09 0.000000000000D+00
    1.082793457031D+04-7.238159179688D-01 0.000000000000D+00 1.000000000000D+00
    2.297011572266D+04 2.739620208740D-02-1.862645149231D-09 0.000000000000D+00
 1 20  9 26  8 45  2.0 6.812158972025D-05 0.000000000000D+00-4.770000000000D+05
   -7.881217285156D+03-3.018573760986D+00 9.313225746155D-10 0.000000000000D+00
    9.934013671875D+03-2.662439346313D-01-9.313225746155D-10 1.000000000000D+00
    2.213063183594D+04-9.540634155273D-01-2.793967723846D-09 0.000000000000D+00
 1 20  9 26  9 15  2.0 6.812252104282D-05 0.000000000000D+00-4.752000000000D+05
   -1.305018652344D+04-2.677115440369D+00 0.000000000000D+00 0.000000000000D+00
    9.848645996094D+03 1.568965911865D-01-9.313225746155D-10 1.000000000000D+00
    1.957997509766D+04-1.861570358276D+00-2.793967723846D-09 0.000000000000D+00
 1 20  9 26  9 45  2.0 6.812345236540D-05 0.000000000000D+00-4.734000000000D+05
   -1.736428515625D+04-2.079386711121D+00-9.313225746155D-10 0.000000000000D+00
    1.041828369141D+04 4.466094970703D-01 0.000000000000D+00 1.000000000000D+00
    1.551563525391D+04-2.625025749207D+00-2.793967723846D-09 0.000000000000D+00
 1 20  9 26 10 15  2.0 6.812438368797D-05 0.000000000000D+00-4.716000000000D+05
   -2.043049462891D+04-1.306715011597D+00-1.862645149231D-09 0.000000000000D+00
    1.133092871094D+04 5.284090042114D-01 0.000000000000D+00 1.000000000000D+00
    1.025199560547D+04-3.185486793518D+00-2.793967723846D-09 0.000000000000D+00
 1 20  9 26 10 45  2.0 6.812531501055D-05 0.000000000000D+00-4.698000000000D+05
   -2.202730615234D+04-4.657316207886D-01-2.793967723846D-09 0.000000000000D+00
    1.217266943359D+04 3.652286529541D-01 9.313225746155D-10 1.000000000000D+00
    4.196016113281D+03-3.499701499939D+00-1.862645149231D-09 0.000000000000D+00
 1 20  9 26 11 15  2.0 6.812624633312D-05 0.000000000000D+00-4.680000000000D+05
   -2.213518554688D+04 3.288450241089D-01-2.793967723846D-09 0.000000000000D+00
    1.250207958984D+04-3.593158721924D-02 1.862645149231D-09 1.000000000000D+00
   -2.184228515625D+03-3.543454170227D+00-1.862645149231D-09 0.000000000000D+00
 2 20  9 26  7 45  2.0 4.472630098462D-04 1.818989403546D-12-4.792200000000D+05
    2.107185302734D+04-8.715124130249D-01 2.793967723846D-09 0.000000000000D+00
    1.239359765625D+04-5.367507934570D-01 9.313225746155D-10-4.000000000000D+00
    7.422847656250D+03 3.380329132080D+00 9.313225746155D-10 0.000000000000D+00
 2 20  9 26  8 15  2.0 4.472667351365D-04 1.818989403546D-12-4.788000000000D+05
    1.875193701172D+04-1.695716857910D+00 3.725290298462D-09 0.000000000000D+00
    1.133665136719D+04-5.955104827881D-01 0.000000000000D+00-4.000000000000D+00
    1.314361621094D+04 2.935045242310D+00 0.000000000000D+00 0.000000000000D+00
 2 20  9 26  8 45  2.0 4.472704604268D-04 1.818989403546D-12-4.770000000000D+05
    1.503858691406D+04-2.401608467102D+00 2.793967723846D-09 0.000000000000D+00
    1.039343359375D+04-4.162492752075D-01 0.000000000000D+00-4.000000000000D+00
    1.785329345703D+04 2.264142036438D+00 0.000000000000D+00 0.000000000000D+00
 2 20  9 26  9 15  2.0 4.472704604268D-04 1.818989403546D-12-4.752000000000D+05
    1.023643603516D+04-2.891429901123D+00 2.793967723846D-09 0.000000000000D+00
    9.948551757813D+03-5.410003662109D-02-9.313225746155D-10-4.000000000000D+00
    2.118973486328D+04 1.419030189514D+00-9.313225746155D-10 0.000000000000D+00
 2 20  9 26  9 45  2.0 4.472741857171D-04 1.818989403546D-12-4.734000000000D+05
    4.799597167969D+03-3.099090576172D+00 1.862645149231D-09 0.000000000000D+00
    1.025611328125D+04 4.031820297241D-01-9.313225746155D-10-4.000000000000D+00
    2.289586718750D+04 4.643135070801D-01-1.862645149231D-09 0.000000000000D+00
 2 20  9 26 10 15  2.0 4.472779110074D-04 1.818989403546D-12-4.716000000000D+05
   -7.357138671875D+02-3.000688552856D+00 0.000000000000D+00 0.000000000000D+00
    1.139384228516D+04 8.501977920532D-01-9.313225746155D-10-4.000000000000D+00
    2.283925292969D+04-5.269823074341D-01-1.862645149231D-09 0.000000000000D+00
 2 20  9 26 10 45  2.0 4.472816362977D-04 1.818989403546D-12-4.698000000000D+05
   -5.831625000000D+03-2.618299484253D+00 0.000000000000D+00 0.000000000000D+00
    1.324722119141D+04 1.181828498840D+00-9.313225746155D-10-4.000000000000D+00
    2.102246435547D+04-1.478809356689D+00-2.793967723846D-09 0.000000000000D+00
 2 20  9 26 11 15  2.0 4.472853615880D-04 9.094947017729D-13-4.680000000000D+05
   -1.002921044922D+04-2.016359329224D+00-9.313225746155D-10 0.000000000000D+00
    1.552640673828D+04 1.311232566833D+00 0.000000000000D+00-4.000000000000D+00
    1.758342089844D+04-2.317778587341D+00-2.793967723846D-09 0.000000000000D+00
 2 20  9 26 11 45  2.0 4.472881555557D-04 9.094947017729D-13-4.662000000000D+05
   -1.301624755859D+04-1.291186332703D+00-1.862645149231D-09 0.000000000000D+00
    1.781337744141D+04 1.184969902039D+00 0.000000000000D+00-4.000000000000D+00
    1.278552587891D+04-2.978758811951D+00-2.793967723846D-09 0.000000000000D+00
 2 20  9 26 12 15  2.0 4.472909495234D-04 9.094947017729D-13-4.644000000000D+05
   -1.467107031250D+04-5.552520751953D-01-1.862645149231D-09 0.000000000000D+00
    1.963178076172D+04 7.927350997925D-01 1.862645149231D-09-4.000000000000D+00
    6.998093261719D+03-3.409993171692D+00-2.793967723846D-09 0.000000000000D+00
 2 20  9 26 12 45  2.0 4.472928121686D-04 9.094947017729D-13-4.626000000000D+05
   -1.507520996094D+04 8.128643035889D-02-1.862645149231D-09 0.000000000000D+00
    2.052807519531D+04 1.699733734131D-01 2.793967723846D-09-4.000000000000D+00
    6.683144531250D+02-3.577314376831D+00-1.862645149231D-09 0.000000000000D+00
 3 20  9 26  9 45  2.0 2.271402627230D-05 9.094947017729D-13-4.721400000000D+05
    2.087386132813D+04-1.937451362610D+00 2.793967723846D-09 0.000000000000D+00
    3.845912597656D+03 1.453294754028D-01-9.313225746155D-10 5.000000000000D+00
    1.422279296875D+04 2.806388854980D+00 0.000000000000D+00 0.000000000000D+00
 3 20  9 26 10 15  2.0 2.271588891745D-05 9.094947017729D-13-4.716000000000D+05
    1.686316894531D+04-2.476794242859D+00 2.793967723846D-09 0.000000000000D+00
    4.492440429688D+03 5.931005477905D-01-1.862645149231D-09 5.000000000000D+00
    1.866222412109D+04 2.094463348389D+00 0.000000000000D+00 0.000000000000D+00
 3 20  9 26 10 45  2.0 2.271868288517D-05 9.094947017729D-13-4.698000000000D+05
    1.212427343750D+04-2.739467620850D+00 1.862645149231D-09 0.000000000000D+00
    6.023471679688D+03 1.111014366150D+00-1.862645149231D-09 5.000000000000D+00
    2.166592041016D+04 1.221382141113D+00-9.313225746155D-10 0.000000000000D+00
 3 20  9 26 11 15  2.0 2.272054553032D-05 9.094947017729D-13-4.680000000000D+05
    7.180048828125D+03-2.705415725708D+00 9.313225746155D-10 0.000000000000D+00
    8.469912597656D+03 1.592055320740D+00-1.862645149231D-09 5.000000000000D+00
    2.300242871094D+04 2.539300918579D-01-1.862645149231D-09 0.000000000000D+00
 3 20  9 26 11 45  2.0 2.272240817547D-05 9.094947017729D-13-4.662000000000D+05
    2.548378417969D+03-2.400089263916D+00 0.000000000000D+00 0.000000000000D+00
    1.166979394531D+04 1.931997299194D+00-9.313225746155D-10 5.000000000000D+00
    2.256783447266D+04-7.338495254517D-01-1.862645149231D-09 0.000000000000D+00
 3 20  9 26 12 15  2.0 2.272240817547D-05 0.000000000000D+00-4.644000000000D+05
   -1.336754394531D+03-1.889915466309D+00-9.313225746155D-10 0.000000000000D+00
    1.528946972656D+04 2.047073364258D+00 0.000000000000D+00 5.000000000000D+00
    2.039394287109D+04-1.666138648987D+00-2.793967723846D-09 0.000000000000D+00
 3 20  9 26 12 45  2.0 2.272333949804D-05 0.000000000000D+00-4.626000000000D+05
   -4.189870605469D+03-1.271137237549D+00-9.313225746155D-10 0.000000000000D+00
    1.887413476563D+04 1.888435363770D+00 0.000000000000D+00 5.000000000000D+00
    1.664636767578D+04-2.471022605896D+00-2.793967723846D-09 0.000000000000D+00
